[
  {
    "name": "Sun",
    "type": "star",
    "mass": 1.989e+31,
    "radius": 695700000,
    "semiMajorAxis": 0,
    "eccentricity": 0,
    "inclination": 0,
    "longitudeOfAscendingNode": 0,
    "argumentOfPeriapsis": 0,
    "meanAnomaly": 0,
    "parentBodyId": null,
    "color": "#ffcc00",
    "id": 1
  },
  {
    "name": "Mercury",
    "type": "planet",
    "mass": 3.3011e+23,
    "radius": 2439700,
    "semiMajorAxis": 579090500,
    "eccentricity": 0.20563,
    "inclination": 0.12226031410220278,
    "longitudeOfAscendingNode": 0.8435350807813794,
    "argumentOfPeriapsis": 0.5083096913508285,
    "meanAnomaly": 3.0507657193160083,
    "parentBodyId": 1,
    "color": "#b5b5b5",
    "id": 2,
    "currentPositionX": -134992986.96243528,
    "currentPositionY": -683546087.4363761,
    "currentPositionZ": -43447933.44253702
  },
  {
    "name": "Venus",
    "type": "planet",
    "mass": 4.8675e+24,
    "radius": 6051800,
    "semiMajorAxis": 1082080000,
    "eccentricity": 0.00677,
    "inclination": 0.05924659772234911,
    "longitudeOfAscendingNode": 1.338318470429252,
    "argumentOfPeriapsis": 0.9579065066645678,
    "meanAnomaly": 0.8746717546369582,
    "parentBodyId": 1,
    "color": "#e6e6e6",
    "id": 3,
    "currentPositionX": -1071448255.6114957,
    "currentPositionY": -98978738.43311173,
    "currentPositionZ": 60491722.43656385
  },
  {
    "name": "Earth",
    "type": "planet",
    "mass": 5.97237e+24,
    "radius": 6371000,
    "semiMajorAxis": 1495980230,
    "eccentricity": 0.0167086,
    "inclination": 8.726646259971647e-7,
    "longitudeOfAscendingNode": -0.19653524388177426,
    "argumentOfPeriapsis": 1.9933026650579555,
    "meanAnomaly": 6.259047403624505,
    "parentBodyId": 1,
    "color": "#3498db",
    "id": 4,
    "currentPositionX": -340665802.89989424,
    "currentPositionY": 1430994173.7406507,
    "currentPositionZ": 1166.6858524976135
  },
  {
    "name": "Moon",
    "type": "moon",
    "mass": 7.342e+22,
    "radius": 1737400,
    "semiMajorAxis": 38474800,
    "eccentricity": 0.0549,
    "inclination": 0.08979719001510825,
    "longitudeOfAscendingNode": 2.1830578283945075,
    "argumentOfPeriapsis": 5.552765015219959,
    "meanAnomaly": 2.0135060728802663,
    "parentBodyId": 4,
    "color": "#d0d0d0",
    "id": 5,
    "currentPositionX": -35842448.803845674,
    "currentPositionY": -16179617.005298335,
    "currentPositionZ": 3478257.676055139
  },
  {
    "name": "Mars",
    "type": "planet",
    "mass": 6.4171e+23,
    "radius": 3389500,
    "semiMajorAxis": 2279392000,
    "eccentricity": 0.0934,
    "inclination": 0.03228859116189509,
    "longitudeOfAscendingNode": 0.8649502707033497,
    "argumentOfPeriapsis": 5.000403213548794,
    "meanAnomaly": 0.3381226359888615,
    "parentBodyId": 1,
    "color": "#e74c3c",
    "id": 6,
    "currentPositionX": 2081797521.3105762,
    "currentPositionY": 21134683.27277267,
    "currentPositionZ": -50732336.19470958
  },
  {
    "name": "Phobos",
    "type": "moon",
    "mass": 10659000000000000,
    "radius": 11266,
    "semiMajorAxis": 1406400,
    "eccentricity": 0.0151,
    "inclination": 0.01907644872429802,
    "longitudeOfAscendingNode": 0.2957634950429591,
    "argumentOfPeriapsis": 2.742191507563411,
    "meanAnomaly": 2.618988715665131,
    "parentBodyId": 6,
    "color": "#8B4513",
    "id": 7,
    "currentPositionX": 1302695.7359199645,
    "currentPositionY": -581136.3896594581,
    "currentPositionZ": -17850.099734840824
  },
  {
    "name": "Jupiter",
    "type": "planet",
    "mass": 1.8982e+27,
    "radius": 69911000,
    "semiMajorAxis": 7785702000,
    "eccentricity": 0.0489,
    "inclination": 0.02274164015348611,
    "longitudeOfAscendingNode": 1.7534275797235832,
    "argumentOfPeriapsis": 4.7798808625593106,
    "meanAnomaly": 0.34941491624926474,
    "parentBodyId": 1,
    "color": "#f39c12",
    "id": 8,
    "currentPositionX": 5967451650.634649,
    "currentPositionY": 4425150750.708057,
    "currentPositionZ": -151755973.29138947
  },
  {
    "name": "Europa",
    "type": "moon",
    "mass": 4.8e+22,
    "radius": 1560800,
    "semiMajorAxis": 67090000,
    "eccentricity": 0.009,
    "inclination": 0.008203047484373348,
    "longitudeOfAscendingNode": 1.7697638615222502,
    "argumentOfPeriapsis": 2.1031217486531673,
    "meanAnomaly": 3.490658503988659,
    "parentBodyId": 8,
    "color": "#f5f5dc",
    "id": 9,
    "currentPositionX": 30307289.21596071,
    "currentPositionY": 60481616.364288956,
    "currentPositionZ": -341779.41546657356
  },
  {
    "name": "Saturn",
    "type": "planet",
    "mass": 5.6834e+26,
    "radius": 58232000,
    "semiMajorAxis": 14335300000,
    "eccentricity": 0.0565,
    "inclination": 0.04337143191205908,
    "longitudeOfAscendingNode": 1.9838284942793547,
    "argumentOfPeriapsis": 5.923507854928594,
    "meanAnomaly": 5.533042794672423,
    "parentBodyId": 1,
    "color": "#f1c40f",
    "id": 10,
    "currentPositionX": 9637785668.577847,
    "currentPositionY": 9811959731.808762,
    "currentPositionZ": -554015457.9781923
  },
  {
    "name": "Titan",
    "type": "moon",
    "mass": 1.3452e+23,
    "radius": 2574730,
    "semiMajorAxis": 122187000,
    "eccentricity": 0.0288,
    "inclination": 0.006083170574901036,
    "longitudeOfAscendingNode": 0.4897393881096088,
    "argumentOfPeriapsis": 3.150877805210403,
    "meanAnomaly": 3.0688124237816297,
    "parentBodyId": 10,
    "color": "#E49B0F",
    "id": 11,
    "currentPositionX": 113879512.35610862,
    "currentPositionY": 53213299.95596786,
    "currentPositionZ": -40210.80414506142
  },
  {
    "name": "Alpha Station",
    "type": "station",
    "mass": 500000,
    "radius": 100,
    "semiMajorAxis": 1015650,
    "eccentricity": 0.0002,
    "inclination": 0.01577777643802874,
    "longitudeOfAscendingNode": 0,
    "argumentOfPeriapsis": 0,
    "meanAnomaly": 0,
    "parentBodyId": 4,
    "color": "#ffffff",
    "id": 12,
    "currentPositionX": 565756.8789691486,
    "currentPositionY": 843242.0314574991,
    "currentPositionZ": 13305.588363678542
  }
]